{"fetched_at":"2026-03-29T16:36:15Z","count":15609,"tles":[{"name":"STARLINK-30340","line1":"1 57884U 23144W   26087.60527243  .00001958  00000+0  80646-4 0  9998","line2":"2 57884  42.9968 178.0748 0001178  57.3839 302.7126 15.27580900140530","category":"Starlink"}]}