{
  "norad_id": 57884,
  "name": "STARLINK-30340",
  "history": [
    {
      "epoch": "2026-03-28T14:31:35.537952Z",
      "apogee_km": 483.85464852185305,
      "perigee_km": 482.23815371255023,
      "latitude_deg": -1.013940786225344e-05,
      "longitude_deg": 134.15339484422907,
      "height_km": 482.3847846698986,
      "semi_major_axis_km": 6861.183401117201,
      "eccentricity": 0.0001178,
      "inclination_deg": 42.9968,
      "raan_deg": 178.0748,
      "arg_perigee_deg": 57.3839,
      "mean_anomaly_deg": 302.7126,
      "mean_motion_rev_day": 15.275809
    }
  ]
}